[{"OBJECT_NAME":"ONEWEB-0720","OBJECT_ID":"2023-029AR","EPOCH":"2026-04-13T19:56:27.032352","MEAN_MOTION":13.19727976,"ECCENTRICITY":0.0002092,"INCLINATION":87.9168,"RA_OF_ASC_NODE":317.8127,"ARG_OF_PERICENTER":82.3461,"MEAN_ANOMALY":277.7909,"EPHEMERIS_TYPE":0,"CLASSIFICATION_TYPE":"U","NORAD_CAT_ID":55835,"ELEMENT_SET_NO":999,"REV_AT_EPOCH":15035,"BSTAR":0.00011839,"MEAN_MOTION_DOT":6e-07,"MEAN_MOTION_DDOT":0.0},{"OBJECT_NAME":"ONEWEB-0537","OBJECT_ID":"2023-043A","EPOCH":"2026-04-13T19:48:15.136416","MEAN_MOTION":13.16593826,"ECCENTRICITY":0.0001592,"INCLINATION":87.906,"RA_OF_ASC_NODE":241.5582,"ARG_OF_PERICENTER":101.7884,"MEAN_ANOMALY":258.3426,"EPHEMERIS_TYPE":0,"CLASSIFICATION_TYPE":"U","NORAD_CAT_ID":56046,"ELEMENT_SET_NO":999,"REV_AT_EPOCH":15049,"BSTAR":0.00015448,"MEAN_MOTION_DOT":7.2e-07,"MEAN_MOTION_DDOT":0.0},{"OBJECT_NAME":"ONEWEB-0538","OBJECT_ID":"2023-043B","EPOCH":"2026-04-13T19:39:05.278176","MEAN_MOTION":13.16590675,"ECCENTRICITY":0.000175,"INCLINATION":87.9059,"RA_OF_ASC_NODE":241.5613,"ARG_OF_PERICENTER":92.9218,"MEAN_ANOMALY":267.2114,"EPHEMERIS_TYPE":0,"CLASSIFICATION_TYPE":"U","NORAD_CAT_ID":56047,"ELEMENT_SET_NO":999,"REV_AT_EPOCH":15050,"BSTAR":7.446199999999999e-05,"MEAN_MOTION_DOT":4.1e-07,"MEAN_MOTION_DDOT":0.0},{"OBJECT_NAME":"ONEWEB-0546","OBJECT_ID":"2023-043C","EPOCH":"2026-04-13T15:42:00.741600","MEAN_MOTION":13.1659247,"ECCENTRICITY":0.0001171,"INCLINATION":87.9058,"RA_OF_ASC_NODE":241.5933,"ARG_OF_PERICENTER":111.1246,"MEAN_ANOMALY":249.001,"EPHEMERIS_TYPE":0,"CLASSIFICATION_TYPE":"U","NORAD_CAT_ID":56048,"ELEMENT_SET_NO":999,"REV_AT_EPOCH":15047,"BSTAR":-0.00011498,"MEAN_MOTION_DOT":-3.1e-07,"MEAN_MOTION_DDOT":0.0},{"OBJECT_NAME":"ONEWEB-0547","OBJECT_ID":"2023-043D","EPOCH":"2026-04-13T19:55:52.323744","MEAN_MOTION":13.21824055,"ECCENTRICITY":0.0001927,"INCLINATION":87.9206,"RA_OF_ASC_NODE":256.7899,"ARG_OF_PERICENTER":93.3543,"MEAN_ANOMALY":266.7811,"EPHEMERIS_TYPE":0,"CLASSIFICATION_TYPE":"U","NORAD_CAT_ID":56049,"ELEMENT_SET_NO":999,"REV_AT_EPOCH":14972,"BSTAR":4.1872e-05,"MEAN_MOTION_DOT":3e-07,"MEAN_MOTION_DDOT":0.0},{"OBJECT_NAME":"ONEWEB-0548","OBJECT_ID":"2023-043E","EPOCH":"2026-04-13T19:56:13.010496","MEAN_MOTION":13.16596165,"ECCENTRICITY":0.0002078,"INCLINATION":87.9056,"RA_OF_ASC_NODE":241.5563,"ARG_OF_PERICENTER":113.084,"MEAN_ANOMALY":247.051,"EPHEMERIS_TYPE":0,"CLASSIFICATION_TYPE":"U","NORAD_CAT_ID":56050,"ELEMENT_SET_NO":999,"REV_AT_EPOCH":15049,"BSTAR":0.00021864,"MEAN_MOTION_DOT":9.6e-07,"MEAN_MOTION_DDOT":0.0},{"OBJECT_NAME":"ONEWEB-0549","OBJECT_ID":"2023-043F","EPOCH":"2026-04-13T16:09:26.067168","MEAN_MOTION":13.21826711,"ECCENTRICITY":0.0001829,"INCLINATION":87.919,"RA_OF_ASC_NODE":256.8318,"ARG_OF_PERICENTER":90.3826,"MEAN_ANOMALY":269.7518,"EPHEMERIS_TYPE":0,"CLASSIFICATION_TYPE":"U","NORAD_CAT_ID":56051,"ELEMENT_SET_NO":999,"REV_AT_EPOCH":14970,"BSTAR":0.00023605999999999999,"MEAN_MOTION_DOT":1.11e-06,"MEAN_MOTION_DDOT":0.0},{"OBJECT_NAME":"ONEWEB-0550","OBJECT_ID":"2023-043G","EPOCH":"2026-04-13T15:50:02.848416","MEAN_MOTION":13.21825486,"ECCENTRICITY":0.0001944,"INCLINATION":87.9193,"RA_OF_ASC_NODE":256.8309,"ARG_OF_PERICENTER":106.5416,"MEAN_ANOMALY":253.5932,"EPHEMERIS_TYPE":0,"CLASSIFICATION_TYPE":"U","NORAD_CAT_ID":56052,"ELEMENT_SET_NO":999,"REV_AT_EPOCH":14970,"BSTAR":8.8745e-05,"MEAN_MOTION_DOT":5e-07,"MEAN_MOTION_DDOT":0.0},{"OBJECT_NAME":"ONEWEB-0551","OBJECT_ID":"2023-043H","EPOCH":"2026-04-13T12:09:21.787488","MEAN_MOTION":13.15547029,"ECCENTRICITY":0.0001866,"INCLINATION":87.8934,"RA_OF_ASC_NODE":272.1326,"ARG_OF_PERICENTER":85.6486,"MEAN_ANOMALY":274.4858,"EPHEMERIS_TYPE":0,"CLASSIFICATION_TYPE":"U","NORAD_CAT_ID":56053,"ELEMENT_SET_NO":999,"REV_AT_EPOCH":14789,"BSTAR":-0.00010278,"MEAN_MOTION_DOT":-2.6e-07,"MEAN_MOTION_DDOT":0.0},{"OBJECT_NAME":"ONEWEB-0552","OBJECT_ID":"2023-043J","EPOCH":"2026-04-13T15:42:46.749600","MEAN_MOTION":13.21825795,"ECCENTRICITY":0.0002021,"INCLINATION":87.919,"RA_OF_ASC_NODE":256.839,"ARG_OF_PERICENTER":96.1183,"MEAN_ANOMALY":264.0182,"EPHEMERIS_TYPE":0,"CLASSIFICATION_TYPE":"U","NORAD_CAT_ID":56054,"ELEMENT_SET_NO":999,"REV_AT_EPOCH":14970,"BSTAR":0.00011931000000000001,"MEAN_MOTION_DOT":6.2e-07,"MEAN_MOTION_DDOT":0.0},{"OBJECT_NAME":"ONEWEB-0553","OBJECT_ID":"2023-043K","EPOCH":"2026-04-13T15:51:08.317152","MEAN_MOTION":13.16593599,"ECCENTRICITY":0.0001539,"INCLINATION":87.9058,"RA_OF_ASC_NODE":241.5937,"ARG_OF_PERICENTER":110.9243,"MEAN_ANOMALY":249.2053,"EPHEMERIS_TYPE":0,"CLASSIFICATION_TYPE":"U","NORAD_CAT_ID":56055,"ELEMENT_SET_NO":999,"REV_AT_EPOCH":15048,"BSTAR":0.00018177,"MEAN_MOTION_DOT":8.2e-07,"MEAN_MOTION_DDOT":0.0},{"OBJECT_NAME":"ONEWEB-0554","OBJECT_ID":"2023-043L","EPOCH":"2026-04-13T15:32:53.827008","MEAN_MOTION":13.16593148,"ECCENTRICITY":0.000193,"INCLINATION":87.9053,"RA_OF_ASC_NODE":241.6059,"ARG_OF_PERICENTER":110.8802,"MEAN_ANOMALY":249.2536,"EPHEMERIS_TYPE":0,"CLASSIFICATION_TYPE":"U","NORAD_CAT_ID":56056,"ELEMENT_SET_NO":999,"REV_AT_EPOCH":15046,"BSTAR":-3.5885e-05,"MEAN_MOTION_DOT":-1e-08,"MEAN_MOTION_DDOT":0.0},{"OBJECT_NAME":"ONEWEB-0555","OBJECT_ID":"2023-043M","EPOCH":"2026-04-13T20:06:27.876960","MEAN_MOTION":13.1659583,"ECCENTRICITY":0.0001324,"INCLINATION":87.9062,"RA_OF_ASC_NODE":241.5538,"ARG_OF_PERICENTER":113.3202,"MEAN_ANOMALY":246.8069,"EPHEMERIS_TYPE":0,"CLASSIFICATION_TYPE":"U","NORAD_CAT_ID":56057,"ELEMENT_SET_NO":999,"REV_AT_EPOCH":15049,"BSTAR":9.3334e-05,"MEAN_MOTION_DOT":4.9e-07,"MEAN_MOTION_DDOT":0.0},{"OBJECT_NAME":"ONEWEB-0557","OBJECT_ID":"2023-043N","EPOCH":"2026-04-13T18:37:34.201056","MEAN_MOTION":13.16593169,"ECCENTRICITY":0.0002049,"INCLINATION":87.9061,"RA_OF_ASC_NODE":241.5774,"ARG_OF_PERICENTER":139.5411,"MEAN_ANOMALY":220.5873,"EPHEMERIS_TYPE":0,"CLASSIFICATION_TYPE":"U","NORAD_CAT_ID":56058,"ELEMENT_SET_NO":999,"REV_AT_EPOCH":15048,"BSTAR":-3.4048e-05,"MEAN_MOTION_DOT":0.0,"MEAN_MOTION_DDOT":0.0},{"OBJECT_NAME":"ONEWEB-0558","OBJECT_ID":"2023-043P","EPOCH":"2026-04-13T21:00:05.170176","MEAN_MOTION":13.21827597,"ECCENTRICITY":0.0001996,"INCLINATION":87.9194,"RA_OF_ASC_NODE":256.7884,"ARG_OF_PERICENTER":85.4665,"MEAN_ANOMALY":274.6697,"EPHEMERIS_TYPE":0,"CLASSIFICATION_TYPE":"U","NORAD_CAT_ID":56059,"ELEMENT_SET_NO":999,"REV_AT_EPOCH":14974,"BSTAR":-0.00010624,"MEAN_MOTION_DOT":-3.1e-07,"MEAN_MOTION_DDOT":0.0},{"OBJECT_NAME":"ONEWEB-0559","OBJECT_ID":"2023-043Q","EPOCH":"2026-04-13T17:05:05.825472","MEAN_MOTION":13.21823149,"ECCENTRICITY":0.0001957,"INCLINATION":87.9196,"RA_OF_ASC_NODE":256.8144,"ARG_OF_PERICENTER":92.9274,"MEAN_ANOMALY":267.2084,"EPHEMERIS_TYPE":0,"CLASSIFICATION_TYPE":"U","NORAD_CAT_ID":56060,"ELEMENT_SET_NO":999,"REV_AT_EPOCH":14973,"BSTAR":-2.1961000000000002e-05,"MEAN_MOTION_DOT":4e-08,"MEAN_MOTION_DDOT":0.0}]