{"generatedAt":"2026-04-14T07:56:45.725768Z","satellites":[{"name":"ONEWEB-0720","tle1":"1 55835U 23029AR  26103.83086843  .00000060  00000+0  11839-3 0  9994","tle2":"2 55835  87.9168 317.8127 0002092  82.3461 277.7909 13.19727976150350"},{"name":"ONEWEB-0537","tle1":"1 56046U 23043A   26103.82517519  .00000072  00000+0  15448-3 0  9996","tle2":"2 56046  87.9060 241.5582 0001592 101.7884 258.3426 13.16593826150499"},{"name":"ONEWEB-0538","tle1":"1 56047U 23043B   26103.81881109  .00000041  00000+0  74462-4 0  9993","tle2":"2 56047  87.9059 241.5613 0001750  92.9218 267.2114 13.16590675150505"},{"name":"ONEWEB-0546","tle1":"1 56048U 23043C   26103.65417525 -.00000031  00000+0 -11498-3 0  9993","tle2":"2 56048  87.9058 241.5933 0001171 111.1246 249.0010 13.16592470150476"},{"name":"ONEWEB-0547","tle1":"1 56049U 23043D   26103.83046671  .00000030  00000+0  41872-4 0  9991","tle2":"2 56049  87.9206 256.7899 0001927  93.3543 266.7811 13.21824055149725"},{"name":"ONEWEB-0548","tle1":"1 56050U 23043E   26103.83070614  .00000096  00000+0  21864-3 0  9997","tle2":"2 56050  87.9056 241.5563 0002078 113.0840 247.0510 13.16596165150494"},{"name":"ONEWEB-0549","tle1":"1 56051U 23043F   26103.67321837  .00000111  00000+0  23606-3 0  9990","tle2":"2 56051  87.9190 256.8318 0001829  90.3826 269.7518 13.21826711149705"},{"name":"ONEWEB-0550","tle1":"1 56052U 23043G   26103.65975519  .00000050  00000+0  88745-4 0  9999","tle2":"2 56052  87.9193 256.8309 0001944 106.5416 253.5932 13.21825486149701"},{"name":"ONEWEB-0551","tle1":"1 56053U 23043H   26103.50650217 -.00000026  00000+0 -10278-3 0  9999","tle2":"2 56053  87.8934 272.1326 0001866  85.6486 274.4858 13.15547029147895"},{"name":"ONEWEB-0552","tle1":"1 56054U 23043J   26103.65470775  .00000062  00000+0  11931-3 0  9990","tle2":"2 56054  87.9190 256.8390 0002021  96.1183 264.0182 13.21825795149709"},{"name":"ONEWEB-0553","tle1":"1 56055U 23043K   26103.66051293  .00000082  00000+0  18177-3 0  9993","tle2":"2 56055  87.9058 241.5937 0001539 110.9243 249.2053 13.16593599150483"},{"name":"ONEWEB-0554","tle1":"1 56056U 23043L   26103.64784522 -.00000001  00000+0 -35885-4 0  9999","tle2":"2 56056  87.9053 241.6059 0001930 110.8802 249.2536 13.16593148150464"},{"name":"ONEWEB-0555","tle1":"1 56057U 23043M   26103.83782265  .00000049  00000+0  93334-4 0  9996","tle2":"2 56057  87.9062 241.5538 0001324 113.3202 246.8069 13.16595830150492"},{"name":"ONEWEB-0557","tle1":"1 56058U 23043N   26103.77609029  .00000000  00000+0 -34048-4 0  9991","tle2":"2 56058  87.9061 241.5774 0002049 139.5411 220.5873 13.16593169150485"},{"name":"ONEWEB-0558","tle1":"1 56059U 23043P   26103.87505984 -.00000031  00000+0 -10624-3 0  9996","tle2":"2 56059  87.9194 256.7884 0001996  85.4665 274.6697 13.21827597149745"},{"name":"ONEWEB-0559","tle1":"1 56060U 23043Q   26103.71187298  .00000004  00000+0 -21961-4 0  9991","tle2":"2 56060  87.9196 256.8144 0001957  92.9274 267.2084 13.21823149149731"}]}